{"epoch":1784902576,"count":9877,"objects":[{"id":"36558","name":"COSMOS 2251 DEB","type":"DEBRIS","l1":"1 36558U 93036BDU 26204.44169852  .00002083  00000-0  47157-3 0  9991","l2":"2 36558  74.0415  92.3523 0012438 127.2728 232.9572 14.56762391885107"}]}