[
  {
    "OBJECT_NAME": "COSMOS 2251 DEB",
    "OBJECT_ID": "1993-036BDU",
    "EPOCH": "2026-07-23T10:36:02.752128",
    "MEAN_MOTION": 14.56762391,
    "ECCENTRICITY": 0.0012438,
    "INCLINATION": 74.0415,
    "RA_OF_ASC_NODE": 92.3523,
    "ARG_OF_PERICENTER": 127.2728,
    "MEAN_ANOMALY": 232.9572,
    "EPHEMERIS_TYPE": 0,
    "CLASSIFICATION_TYPE": "U",
    "NORAD_CAT_ID": 36558,
    "ELEMENT_SET_NO": 999,
    "REV_AT_EPOCH": 88510,
    "BSTAR": 0.00047157,
    "MEAN_MOTION_DOT": 0.00002083,
    "MEAN_MOTION_DDOT": 0
  }
]
